start=new Date('2023-06-22T00:00:00.000Z').valueOf();
sats=[{"TLE_LINE2":"2 56419  42.9981 181.7196 0001716 269.5053 355.0786 15.48914825  1303","LAUNCH_DATE":"2023-05-04","MEAN_MOTION_DOT":"0.00017326","MEAN_MOTION_DDOT":"0.0000000000000","OBJECT_NAME":"STARLINK-5350","OBJECT_ID":"2023-061AX","SEMIMAJOR_AXIS":"6798.036","OBJECT_TYPE":"PAYLOAD","EPOCH":"2023-06-21T14:00:01.000224","CLASSIFICATION_TYPE":"U","MEAN_ANOMALY":"355.0786","ELEMENT_SET_NO":"999","BSTAR":"0.00031860000000","EPHEMERIS_TYPE":"0","INCLINATION":"42.9981","REV_AT_EPOCH":"130","MEAN_ELEMENT_THEORY":"SGP4","APOAPSIS":"421.068","RCS_SIZE":"LARGE","PERIOD":"92.968","ARG_OF_PERICENTER":"269.5053","NORAD_CAT_ID":"56419","REF_FRAME":"TEME","SITE":"AFETR","TLE_LINE1":"1 56419U 23061AX  23172.58334491  .00017326  00000-0  31860-3 0  9999","RA_OF_ASC_NODE":"181.7196","TIME_SYSTEM":"UTC","CENTER_NAME":"EARTH","DECAY_DATE":null,"PERIAPSIS":"418.735","COUNTRY_CODE":"US","GP_ID":"234438921","FILE":"3939133","ECCENTRICITY":"0.00017160","MEAN_MOTION":"15.48914825"},{"ELEMENT_SET_NO":"999","MEAN_ANOMALY":"96.1087","CLASSIFICATION_TYPE":"U","EPOCH":"2023-06-21T11:53:02.866848","EPHEMERIS_TYPE":"0","BSTAR":"0.00000513320000","MEAN_ELEMENT_THEORY":"SGP4","REV_AT_EPOCH":"759","INCLINATION":"43.0002","LAUNCH_DATE":"2023-05-04","TLE_LINE2":"2 56420  43.0002 180.7867 0001686 263.9589  96.1087 15.71351147  7595","MEAN_MOTION_DDOT":"0.0000000000000","MEAN_MOTION_DOT":"0.00000221","OBJECT_ID":"2023-061AY","OBJECT_NAME":"STARLINK-6272","OBJECT_TYPE":"PAYLOAD","SEMIMAJOR_AXIS":"6733.172","TIME_SYSTEM":"UTC","PERIAPSIS":"353.901","COUNTRY_CODE":"US","DECAY_DATE":null,"CENTER_NAME":"EARTH","MEAN_MOTION":"15.71351147","FILE":"3939133","ECCENTRICITY":"0.00016860","GP_ID":"234438844","APOAPSIS":"356.172","NORAD_CAT_ID":"56420","ARG_OF_PERICENTER":"263.9589","RCS_SIZE":"LARGE","PERIOD":"91.641","RA_OF_ASC_NODE":"180.7867","TLE_LINE1":"1 56420U 23061AY  23172.49517207  .00000221  00000-0  51332-5 0  9993","REF_FRAME":"TEME","SITE":"AFETR"},{"APOAPSIS":"355.863","ARG_OF_PERICENTER":"270.6155","RCS_SIZE":"LARGE","PERIOD":"91.641","NORAD_CAT_ID":"56421","TLE_LINE1":"1 56421U 23061AZ  23172.49538081  .00001450  00000-0  14502-4 0  9999","REF_FRAME":"TEME","SITE":"AFETR","RA_OF_ASC_NODE":"180.7897","TIME_SYSTEM":"UTC","DECAY_DATE":null,"CENTER_NAME":"EARTH","PERIAPSIS":"354.191","COUNTRY_CODE":"US","FILE":"3939133","ECCENTRICITY":"0.00012420","GP_ID":"234438692","MEAN_MOTION":"15.71354509","TLE_LINE2":"2 56421  43.0001 180.7897 0001242 270.6155  89.4571 15.71354509  7598","LAUNCH_DATE":"2023-05-04","MEAN_MOTION_DDOT":"0.0000000000000","MEAN_MOTION_DOT":"0.00001450","OBJECT_ID":"2023-061AZ","OBJECT_NAME":"STARLINK-6270","SEMIMAJOR_AXIS":"6733.162","OBJECT_TYPE":"PAYLOAD","EPOCH":"2023-06-21T11:53:20.901984","ELEMENT_SET_NO":"999","MEAN_ANOMALY":"89.4571","CLASSIFICATION_TYPE":"U","BSTAR":"0.00001450200000","EPHEMERIS_TYPE":"0","INCLINATION":"43.0001","REV_AT_EPOCH":"759","MEAN_ELEMENT_THEORY":"SGP4"},{"CENTER_NAME":"EARTH","DECAY_DATE":null,"PERIAPSIS":"353.803","COUNTRY_CODE":"US","GP_ID":"234438461","ECCENTRICITY":"0.00018080","FILE":"3939133","MEAN_MOTION":"15.71356691","TIME_SYSTEM":"UTC","RCS_SIZE":"LARGE","PERIOD":"91.641","ARG_OF_PERICENTER":"251.2123","NORAD_CAT_ID":"56422","REF_FRAME":"TEME","SITE":"AFETR","TLE_LINE1":"1 56422U 23061BA  23172.49495822  .00003016  00000-0  26437-4 0  9995","RA_OF_ASC_NODE":"180.7852","APOAPSIS":"356.238","BSTAR":"0.00002643700000","EPHEMERIS_TYPE":"0","REV_AT_EPOCH":"759","INCLINATION":"42.9978","MEAN_ELEMENT_THEORY":"SGP4","EPOCH":"2023-06-21T11:52:44.390208","CLASSIFICATION_TYPE":"U","MEAN_ANOMALY":"108.8548","ELEMENT_SET_NO":"999","OBJECT_NAME":"STARLINK-6236","OBJECT_ID":"2023-061BA","SEMIMAJOR_AXIS":"6733.156","OBJECT_TYPE":"PAYLOAD","TLE_LINE2":"2 56422  42.9978 180.7852 0001808 251.2123 108.8548 15.71356691  7593","LAUNCH_DATE":"2023-05-04","MEAN_MOTION_DOT":"0.00003016","MEAN_MOTION_DDOT":"0.0000000000000"},{"APOAPSIS":"355.954","SITE":"AFETR","REF_FRAME":"TEME","TLE_LINE1":"1 56423U 23061BB  23172.49506490  .00001879  00000-0  17772-4 0  9997","RA_OF_ASC_NODE":"180.7860","RCS_SIZE":"LARGE","PERIOD":"91.641","ARG_OF_PERICENTER":"272.3364","NORAD_CAT_ID":"56423","TIME_SYSTEM":"UTC","GP_ID":"234438613","FILE":"3939133","ECCENTRICITY":"0.00013900","MEAN_MOTION":"15.71357618","CENTER_NAME":"EARTH","DECAY_DATE":null,"PERIAPSIS":"354.082","COUNTRY_CODE":"US","MEAN_MOTION_DOT":"0.00001879","MEAN_MOTION_DDOT":"0.0000000000000","TLE_LINE2":"2 56423  42.9986 180.7860 0001390 272.3364  87.7344 15.71357618  7598","LAUNCH_DATE":"2023-05-04","SEMIMAJOR_AXIS":"6733.153","OBJECT_TYPE":"PAYLOAD","OBJECT_NAME":"STARLINK-6239","OBJECT_ID":"2023-061BB","EPOCH":"2023-06-21T11:52:53.607360","MEAN_ANOMALY":"87.7344","CLASSIFICATION_TYPE":"U","ELEMENT_SET_NO":"999","INCLINATION":"42.9986","REV_AT_EPOCH":"759","MEAN_ELEMENT_THEORY":"SGP4","EPHEMERIS_TYPE":"0","BSTAR":"0.00001777200000"},{"BSTAR":"0.00003078800000","EPHEMERIS_TYPE":"0","MEAN_ELEMENT_THEORY":"SGP4","INCLINATION":"42.9993","REV_AT_EPOCH":"788","CLASSIFICATION_TYPE":"U","MEAN_ANOMALY":"98.9458","ELEMENT_SET_NO":"999","EPOCH":"2023-06-21T11:52:25.748544","OBJECT_NAME":"STARLINK-6242","OBJECT_ID":"2023-061BC","OBJECT_TYPE":"PAYLOAD","SEMIMAJOR_AXIS":"6733.123","LAUNCH_DATE":"2023-05-04","TLE_LINE2":"2 56424  42.9993 180.7836 0001455 261.1245  98.9458 15.71368217  7885","MEAN_MOTION_DDOT":"0.0000000000000","MEAN_MOTION_DOT":"0.00003589","PERIAPSIS":"354.008","COUNTRY_CODE":"US","CENTER_NAME":"EARTH","DECAY_DATE":null,"MEAN_MOTION":"15.71368217","GP_ID":"234440406","FILE":"3939224","ECCENTRICITY":"0.00014550","TIME_SYSTEM":"UTC","NORAD_CAT_ID":"56424","RCS_SIZE":"LARGE","PERIOD":"91.640","ARG_OF_PERICENTER":"261.1245","RA_OF_ASC_NODE":"180.7836","REF_FRAME":"TEME","SITE":"AFETR","TLE_LINE1":"1 56424U 23061BC  23172.49474246  .00003589  00000-0  30788-4 0  9993","APOAPSIS":"355.967"},{"TIME_SYSTEM":"UTC","PERIAPSIS":"354.083","COUNTRY_CODE":"US","CENTER_NAME":"EARTH","DECAY_DATE":null,"MEAN_MOTION":"15.71350800","GP_ID":"234438384","ECCENTRICITY":"0.00014180","FILE":"3939133","APOAPSIS":"355.992","NORAD_CAT_ID":"56425","RCS_SIZE":"LARGE","PERIOD":"91.641","ARG_OF_PERICENTER":"262.3513","RA_OF_ASC_NODE":"180.7853","REF_FRAME":"TEME","SITE":"AFETR","TLE_LINE1":"1 56425U 23061BD  23172.49485771  .00000836  00000-0  98214-5 0  9990","MEAN_ANOMALY":"97.7194","CLASSIFICATION_TYPE":"U","ELEMENT_SET_NO":"999","EPOCH":"2023-06-21T11:52:35.706144","EPHEMERIS_TYPE":"0","BSTAR":"0.00000982140000","MEAN_ELEMENT_THEORY":"SGP4","REV_AT_EPOCH":"759","INCLINATION":"42.9999","LAUNCH_DATE":"2023-05-04","TLE_LINE2":"2 56425  42.9999 180.7853 0001418 262.3513  97.7194 15.71350800  7592","MEAN_MOTION_DDOT":"0.0000000000000","MEAN_MOTION_DOT":"0.00000836","OBJECT_NAME":"STARLINK-6224","OBJECT_ID":"2023-061BD","OBJECT_TYPE":"PAYLOAD","SEMIMAJOR_AXIS":"6733.172"},{"EPOCH":"2023-06-21T11:52:08.277600","ELEMENT_SET_NO":"999","CLASSIFICATION_TYPE":"U","MEAN_ANOMALY":"97.1925","BSTAR":"0.00000722600000","EPHEMERIS_TYPE":"0","REV_AT_EPOCH":"788","INCLINATION":"42.9997","MEAN_ELEMENT_THEORY":"SGP4","TLE_LINE2":"2 56426  42.9997 180.7833 0001318 262.8793  97.1925 15.71353303  7882","LAUNCH_DATE":"2023-05-04","MEAN_MOTION_DOT":"0.00000496","MEAN_MOTION_DDOT":"0.0000000000000","OBJECT_ID":"2023-061BE","OBJECT_NAME":"STARLINK-5352","SEMIMAJOR_AXIS":"6733.165","OBJECT_TYPE":"PAYLOAD","TIME_SYSTEM":"UTC","DECAY_DATE":null,"CENTER_NAME":"EARTH","COUNTRY_CODE":"US","PERIAPSIS":"354.143","FILE":"3939271","ECCENTRICITY":"0.00013180","GP_ID":"234441785","MEAN_MOTION":"15.71353303","APOAPSIS":"355.918","RCS_SIZE":"LARGE","ARG_OF_PERICENTER":"262.8793","PERIOD":"91.641","NORAD_CAT_ID":"56426","TLE_LINE1":"1 56426U 23061BE  23172.49454025  .00000496  00000-0  72260-5 0  9994","SITE":"AFETR","REF_FRAME":"TEME","RA_OF_ASC_NODE":"180.7833"},{"APOAPSIS":"356.007","TLE_LINE1":"1 56427U 23061BF  23172.49464567  .00000124  00000-0  43888-5 0  9999","REF_FRAME":"TEME","SITE":"AFETR","RA_OF_ASC_NODE":"180.7833","RCS_SIZE":"LARGE","PERIOD":"91.641","ARG_OF_PERICENTER":"263.7907","NORAD_CAT_ID":"56427","TIME_SYSTEM":"UTC","ECCENTRICITY":"0.00014430","FILE":"3939133","GP_ID":"234438922","MEAN_MOTION":"15.71351384","DECAY_DATE":null,"CENTER_NAME":"EARTH","PERIAPSIS":"354.064","COUNTRY_CODE":"US","MEAN_MOTION_DOT":"0.00000124","MEAN_MOTION_DDOT":"0.0000000000000","TLE_LINE2":"2 56427  42.9982 180.7833 0001443 263.7907  96.2796 15.71351384  7594","LAUNCH_DATE":"2023-05-04","SEMIMAJOR_AXIS":"6733.171","OBJECT_TYPE":"PAYLOAD","OBJECT_ID":"2023-061BF","OBJECT_NAME":"STARLINK-5724","EPOCH":"2023-06-21T11:52:17.385888","ELEMENT_SET_NO":"999","CLASSIFICATION_TYPE":"U","MEAN_ANOMALY":"96.2796","INCLINATION":"42.9982","REV_AT_EPOCH":"759","MEAN_ELEMENT_THEORY":"SGP4","BSTAR":"0.00000438880000","EPHEMERIS_TYPE":"0"},{"MEAN_ANOMALY":"78.5053","CLASSIFICATION_TYPE":"U","ELEMENT_SET_NO":"999","EPOCH":"2023-06-21T11:51:59.342112","MEAN_ELEMENT_THEORY":"SGP4","INCLINATION":"42.9975","REV_AT_EPOCH":"788","BSTAR":"0.00000464290000","EPHEMERIS_TYPE":"0","MEAN_MOTION_DOT":"0.00000157","MEAN_MOTION_DDOT":"0.0000000000000","LAUNCH_DATE":"2023-05-04","TLE_LINE2":"2 56428  42.9975 180.7831 0001245 281.5675  78.5053 15.71350087  7885","OBJECT_TYPE":"PAYLOAD","SEMIMAJOR_AXIS":"6733.175","OBJECT_NAME":"STARLINK-6238","OBJECT_ID":"2023-061BG","TIME_SYSTEM":"UTC","MEAN_MOTION":"15.71350087","GP_ID":"234442166","FILE":"3939262","ECCENTRICITY":"0.00012450","PERIAPSIS":"354.201","COUNTRY_CODE":"US","CENTER_NAME":"EARTH","DECAY_DATE":null,"APOAPSIS":"355.878","RA_OF_ASC_NODE":"180.7831","SITE":"AFETR","REF_FRAME":"TEME","TLE_LINE1":"1 56428U 23061BG  23172.49443683  .00000157  00000-0  46429-5 0  9996","NORAD_CAT_ID":"56428","ARG_OF_PERICENTER":"281.5675","RCS_SIZE":"LARGE","PERIOD":"91.641"}];
